{
  "links" : {
    "next" : "https://api.nasa.gov/neo/rest/v1/feed?start_date=1997-09-23&end_date=1997-09-23&detailed=true&api_key=t0TVs3DtDT2H8Oy2Zy8m2eVrNsAVKAexjcZXUckd",
    "prev" : "https://api.nasa.gov/neo/rest/v1/feed?start_date=1997-09-21&end_date=1997-09-21&detailed=true&api_key=t0TVs3DtDT2H8Oy2Zy8m2eVrNsAVKAexjcZXUckd",
    "self" : "https://api.nasa.gov/neo/rest/v1/feed?start_date=1997-09-22&end_date=1997-09-22&detailed=true&api_key=t0TVs3DtDT2H8Oy2Zy8m2eVrNsAVKAexjcZXUckd"
  },
  "element_count" : 3,
  "near_earth_objects" : {
    "1997-09-22" : [ {
      "links" : {
        "self" : "https://api.nasa.gov/neo/rest/v1/neo/2365449?api_key=t0TVs3DtDT2H8Oy2Zy8m2eVrNsAVKAexjcZXUckd"
      },
      "neo_reference_id" : "2365449",
      "name" : "365449 (2010 NJ1)",
      "nasa_jpl_url" : "http://ssd.jpl.nasa.gov/sbdb.cgi?sstr=2365449",
      "absolute_magnitude_h" : 20.5,
      "estimated_diameter" : {
        "kilometers" : {
          "estimated_diameter_min" : 0.2111324448,
          "estimated_diameter_max" : 0.4721064988
        },
        "meters" : {
          "estimated_diameter_min" : 211.1324447897,
          "estimated_diameter_max" : 472.1064988055
        },
        "miles" : {
          "estimated_diameter_min" : 0.1311915784,
          "estimated_diameter_max" : 0.2933532873
        },
        "feet" : {
          "estimated_diameter_min" : 692.6917701639,
          "estimated_diameter_max" : 1548.9058855411
        }
      },
      "is_potentially_hazardous_asteroid" : false,
      "close_approach_data" : [ {
        "close_approach_date" : "1997-09-22",
        "epoch_date_close_approach" : 874911600000,
        "relative_velocity" : {
          "kilometers_per_second" : "13.7408581937",
          "kilometers_per_hour" : "49467.0894973571",
          "miles_per_hour" : "30736.9256935106"
        },
        "miss_distance" : {
          "astronomical" : "0.1816216139",
          "lunar" : "70.6508102417",
          "kilometers" : "27170206",
          "miles" : "16882784"
        },
        "orbiting_body" : "Earth"
      } ],
      "orbital_data" : {
        "orbit_id" : "57",
        "orbit_determination_date" : "2017-07-28 06:19:26",
        "orbit_uncertainty" : "1",
        "minimum_orbit_intersection" : ".154706",
        "jupiter_tisserand_invariant" : "6.085",
        "epoch_osculation" : "2458000.5",
        "eccentricity" : ".5405178023526714",
        "semi_major_axis" : ".968377581781579",
        "inclination" : "11.22419547692227",
        "ascending_node_longitude" : "128.2836974696954",
        "orbital_period" : "348.0691375405533",
        "perihelion_distance" : ".4449522594294055",
        "perihelion_argument" : "358.5166597457216",
        "aphelion_distance" : "1.491802904133752",
        "perihelion_time" : "2458091.374780160312",
        "mean_anomaly" : "266.010279771211",
        "mean_motion" : "1.034277277622917",
        "equinox" : "J2000"
      }
    }, {
      "links" : {
        "self" : "https://api.nasa.gov/neo/rest/v1/neo/3137689?api_key=t0TVs3DtDT2H8Oy2Zy8m2eVrNsAVKAexjcZXUckd"
      },
      "neo_reference_id" : "3137689",
      "name" : "(2002 QE47)",
      "nasa_jpl_url" : "http://ssd.jpl.nasa.gov/sbdb.cgi?sstr=3137689",
      "absolute_magnitude_h" : 22.2,
      "estimated_diameter" : {
        "kilometers" : {
          "estimated_diameter_min" : 0.096506147,
          "estimated_diameter_max" : 0.2157943048
        },
        "meters" : {
          "estimated_diameter_min" : 96.5061469579,
          "estimated_diameter_max" : 215.7943048444
        },
        "miles" : {
          "estimated_diameter_min" : 0.059966121,
          "estimated_diameter_max" : 0.134088323
        },
        "feet" : {
          "estimated_diameter_min" : 316.6212271853,
          "estimated_diameter_max" : 707.9865871058
        }
      },
      "is_potentially_hazardous_asteroid" : false,
      "close_approach_data" : [ {
        "close_approach_date" : "1997-09-22",
        "epoch_date_close_approach" : 874911600000,
        "relative_velocity" : {
          "kilometers_per_second" : "1.5564373389",
          "kilometers_per_hour" : "5603.1744199839",
          "miles_per_hour" : "3481.5946833506"
        },
        "miss_distance" : {
          "astronomical" : "0.4421889905",
          "lunar" : "172.011505127",
          "kilometers" : "66150532",
          "miles" : "41104032"
        },
        "orbiting_body" : "Earth"
      } ],
      "orbital_data" : {
        "orbit_id" : "15",
        "orbit_determination_date" : "2017-04-06 09:14:54",
        "orbit_uncertainty" : "1",
        "minimum_orbit_intersection" : ".170088",
        "jupiter_tisserand_invariant" : "3.949",
        "epoch_osculation" : "2458000.5",
        "eccentricity" : ".3659609854143355",
        "semi_major_axis" : "1.828534395867664",
        "inclination" : ".7331821397210585",
        "ascending_node_longitude" : "15.23178254723687",
        "orbital_period" : "903.1359458038664",
        "perihelion_distance" : "1.159362146491927",
        "perihelion_argument" : "34.75790705729253",
        "aphelion_distance" : "2.497706645243401",
        "perihelion_time" : "2458017.122086730260",
        "mean_anomaly" : "353.3742519598559",
        "mean_motion" : ".3986110858200533",
        "equinox" : "J2000"
      }
    }, {
      "links" : {
        "self" : "https://api.nasa.gov/neo/rest/v1/neo/3514959?api_key=t0TVs3DtDT2H8Oy2Zy8m2eVrNsAVKAexjcZXUckd"
      },
      "neo_reference_id" : "3514959",
      "name" : "(2010 GA7)",
      "nasa_jpl_url" : "http://ssd.jpl.nasa.gov/sbdb.cgi?sstr=3514959",
      "absolute_magnitude_h" : 21.2,
      "estimated_diameter" : {
        "kilometers" : {
          "estimated_diameter_min" : 0.1529519353,
          "estimated_diameter_max" : 0.3420109247
        },
        "meters" : {
          "estimated_diameter_min" : 152.9519353442,
          "estimated_diameter_max" : 342.0109247198
        },
        "miles" : {
          "estimated_diameter_min" : 0.095039897,
          "estimated_diameter_max" : 0.2125156703
        },
        "feet" : {
          "estimated_diameter_min" : 501.8108275547,
          "estimated_diameter_max" : 1122.0831222578
        }
      },
      "is_potentially_hazardous_asteroid" : false,
      "close_approach_data" : [ {
        "close_approach_date" : "1997-09-22",
        "epoch_date_close_approach" : 874911600000,
        "relative_velocity" : {
          "kilometers_per_second" : "23.6978524077",
          "kilometers_per_hour" : "85312.2686675666",
          "miles_per_hour" : "53009.7260506888"
        },
        "miss_distance" : {
          "astronomical" : "0.4179383053",
          "lunar" : "162.5780029297",
          "kilometers" : "62522680",
          "miles" : "38849792"
        },
        "orbiting_body" : "Earth"
      } ],
      "orbital_data" : {
        "orbit_id" : "27",
        "orbit_determination_date" : "2017-04-30 06:17:20",
        "orbit_uncertainty" : "0",
        "minimum_orbit_intersection" : ".163813",
        "jupiter_tisserand_invariant" : "6.370",
        "epoch_osculation" : "2458000.5",
        "eccentricity" : ".3891325990172225",
        "semi_major_axis" : ".9126006979653501",
        "inclination" : "30.00769774089614",
        "ascending_node_longitude" : "21.52832410808652",
        "orbital_period" : "318.4341389431929",
        "perihelion_distance" : ".5574780165011621",
        "perihelion_argument" : "25.48660350512651",
        "aphelion_distance" : "1.267723379429538",
        "perihelion_time" : "2458057.593664628115",
        "mean_anomaly" : "295.4537822661405",
        "mean_motion" : "1.130532050347222",
        "equinox" : "J2000"
      }
    } ]
  }
}